0 SL-8 R/B
1 28421U 04037C   13281.17872956  .00000017  00000-0  51312-4 0  5766
2 28421 082.4856 353.1785 0020703 008.8079 020.2448 12.44337446410629
0 SL-8 R/B
1 28421U 04037C   13283.19368956  .00000013  00000-0  21198-4 0  5776
2 28421 082.4855 351.9194 0020625 004.2996 046.5919 12.44337261410875
0 SL-8 R/B
1 28421U 04037C   13285.20416841  .00000049  00000-0  27469-3 0  5783
2 28421 082.4853 350.6632 0020550 359.8468 052.8208 12.44337191411128
0 SL-8 R/B
1 28421U 04037C   13287.79589602  .00000064  00000-0  38483-3 0  5791
2 28421 082.4846 349.0437 0020455 354.1075 142.8344 12.44337333411445
0 SL-8 R/B
1 28421U 04037C   13290.18924118  .00000061  00000-0  36492-3 0  5800
2 28421 082.4839 347.5480 0020395 348.6542 064.3197 12.44337791411743
0 SL-8 R/B
1 28421U 04037C   13292.19942992  .00000038  00000-0  19681-3 0  5819
2 28421 082.4835 346.2915 0020299 344.2711 069.1820 12.44338142411995
0 SL-8 R/B
1 28421U 04037C   13294.79091536  .00000032  00000-0  15379-3 0  5821
2 28421 082.4834 344.6716 0020217 338.4295 158.2218 12.44338397412317
